start=new Date('2023-01-17T00:00:00.000Z').valueOf();
sats=[{"LAUNCH_DATE":"2022-12-28","COUNTRY_CODE":"US","FILE":"3750956","GP_ID":"223254368","APOAPSIS":"373.855","SEMIMAJOR_AXIS":"6751.089","PERIOD":"92.007","RA_OF_ASC_NODE":"258.7389","MEAN_ELEMENT_THEORY":"SGP4","MEAN_MOTION_DDOT":"0.0000000000000","TLE_LINE2":"2 54840  42.9950 258.7389 0001334 264.9921 212.4458 15.65099581  1307","INCLINATION":"42.9950","ARG_OF_PERICENTER":"264.9921","CENTER_NAME":"EARTH","REF_FRAME":"TEME","EPHEMERIS_TYPE":"0","RCS_SIZE":"LARGE","SITE":"AFETR","NORAD_CAT_ID":"54840","MEAN_MOTION":"15.65099581","PERIAPSIS":"372.054","OBJECT_ID":"2022-177W","OBJECT_NAME":"STARLINK-5368","MEAN_ANOMALY":"212.4458","EPOCH":"2023-01-16T16:00:00.999936","CLASSIFICATION_TYPE":"U","REV_AT_EPOCH":"130","ECCENTRICITY":"0.00013340","DECAY_DATE":null,"OBJECT_TYPE":"PAYLOAD","TIME_SYSTEM":"UTC","BSTAR":"-0.01285800000000","MEAN_MOTION_DOT":"-0.01176255","TLE_LINE1":"1 54840U 22177W   23016.66667824 -.01176255  00000-0 -12858-1 0  9991","ELEMENT_SET_NO":"999"},{"APOAPSIS":"375.497","SEMIMAJOR_AXIS":"6752.646","COUNTRY_CODE":"US","GP_ID":"223255574","FILE":"3750956","LAUNCH_DATE":"2022-12-28","TLE_LINE2":"2 54841  42.9955 257.7541 0001460 261.9827  71.8977 15.64558553  1305","MEAN_MOTION_DDOT":"0.0000000000000","INCLINATION":"42.9955","ARG_OF_PERICENTER":"261.9827","RA_OF_ASC_NODE":"257.7541","MEAN_ELEMENT_THEORY":"SGP4","PERIOD":"92.039","EPHEMERIS_TYPE":"0","CENTER_NAME":"EARTH","REF_FRAME":"TEME","MEAN_MOTION":"15.64558553","NORAD_CAT_ID":"54841","SITE":"AFETR","RCS_SIZE":"LARGE","OBJECT_NAME":"STARLINK-4659","EPOCH":"2023-01-16T20:00:01.000224","MEAN_ANOMALY":"71.8977","OBJECT_ID":"2022-177X","PERIAPSIS":"373.525","REV_AT_EPOCH":"130","ECCENTRICITY":"0.00014600","CLASSIFICATION_TYPE":"U","BSTAR":"-0.01357200000000","TIME_SYSTEM":"UTC","DECAY_DATE":null,"OBJECT_TYPE":"PAYLOAD","MEAN_MOTION_DOT":"-0.01211042","TLE_LINE1":"1 54841U 22177X   23016.83334491 -.01211042  00000-0 -13572-1 0  9990","ELEMENT_SET_NO":"999"},{"BSTAR":"-0.01232900000000","TIME_SYSTEM":"UTC","DECAY_DATE":null,"OBJECT_TYPE":"PAYLOAD","TLE_LINE1":"1 54842U 22177Y   23016.58334491 -.01143008  00000-0 -12329-1 0  9998","MEAN_MOTION_DOT":"-0.01143008","ELEMENT_SET_NO":"999","OBJECT_NAME":"STARLINK-5387","MEAN_ANOMALY":"106.1144","EPOCH":"2023-01-16T14:00:01.000224","OBJECT_ID":"2022-177Y","PERIAPSIS":"371.188","ECCENTRICITY":"0.00015340","REV_AT_EPOCH":"318","CLASSIFICATION_TYPE":"U","EPHEMERIS_TYPE":"0","CENTER_NAME":"EARTH","REF_FRAME":"TEME","MEAN_MOTION":"15.65353651","NORAD_CAT_ID":"54842","SITE":"AFETR","RCS_SIZE":"MEDIUM","APOAPSIS":"373.259","SEMIMAJOR_AXIS":"6750.359","COUNTRY_CODE":"US","FILE":"3750642","GP_ID":"223225304","LAUNCH_DATE":"2022-12-28","MEAN_MOTION_DDOT":"0.0000000000000","TLE_LINE2":"2 54842  42.9976 259.2345 0001534 262.9712 106.1144 15.65353651  3183","INCLINATION":"42.9976","ARG_OF_PERICENTER":"262.9712","RA_OF_ASC_NODE":"259.2345","MEAN_ELEMENT_THEORY":"SGP4","PERIOD":"91.992"},{"DECAY_DATE":null,"OBJECT_TYPE":"PAYLOAD","TIME_SYSTEM":"UTC","BSTAR":"-0.01344500000000","ELEMENT_SET_NO":"999","TLE_LINE1":"1 54843U 22177Z   23016.91667824 -.01193714  00000-0 -13445-1 0  9994","MEAN_MOTION_DOT":"-0.01193714","PERIAPSIS":"374.049","OBJECT_ID":"2022-177Z","MEAN_ANOMALY":"176.0882","EPOCH":"2023-01-16T22:00:00.999936","OBJECT_NAME":"STARLINK-5304","CLASSIFICATION_TYPE":"U","REV_AT_EPOCH":"130","ECCENTRICITY":"0.00013820","REF_FRAME":"TEME","CENTER_NAME":"EARTH","EPHEMERIS_TYPE":"0","RCS_SIZE":"LARGE","SITE":"AFETR","NORAD_CAT_ID":"54843","MEAN_MOTION":"15.64394719","LAUNCH_DATE":"2022-12-28","GP_ID":"223254616","FILE":"3750956","COUNTRY_CODE":"US","SEMIMAJOR_AXIS":"6753.117","APOAPSIS":"375.915","PERIOD":"92.048","MEAN_ELEMENT_THEORY":"SGP4","RA_OF_ASC_NODE":"257.2530","INCLINATION":"42.9950","TLE_LINE2":"2 54843  42.9950 257.2530 0001382 269.4847 176.0882 15.64394719  1308","MEAN_MOTION_DDOT":"0.0000000000000","ARG_OF_PERICENTER":"269.4847"},{"OBJECT_ID":"2022-177AA","PERIAPSIS":"372.700","MEAN_ANOMALY":"176.0951","EPOCH":"2023-01-16T22:00:00.999936","OBJECT_NAME":"STARLINK-5388","CLASSIFICATION_TYPE":"U","ECCENTRICITY":"0.00023180","REV_AT_EPOCH":"130","TIME_SYSTEM":"UTC","DECAY_DATE":null,"OBJECT_TYPE":"PAYLOAD","BSTAR":"-0.01759700000000","ELEMENT_SET_NO":"999","TLE_LINE1":"1 54844U 22177AA  23016.91667824 -.01559520  00000-0 -17597-1 0  9998","MEAN_MOTION_DOT":"-0.01559520","GP_ID":"223254858","FILE":"3750956","COUNTRY_CODE":"US","LAUNCH_DATE":"2022-12-28","SEMIMAJOR_AXIS":"6752.400","APOAPSIS":"375.830","MEAN_ELEMENT_THEORY":"SGP4","RA_OF_ASC_NODE":"257.2355","PERIOD":"92.034","TLE_LINE2":"2 54844  42.9955 257.2355 0002318 276.6277 176.0951 15.64643911  1304","MEAN_MOTION_DDOT":"0.0000000000000","ARG_OF_PERICENTER":"276.6277","INCLINATION":"42.9955","REF_FRAME":"TEME","CENTER_NAME":"EARTH","EPHEMERIS_TYPE":"0","SITE":"AFETR","RCS_SIZE":"LARGE","MEAN_MOTION":"15.64643911","NORAD_CAT_ID":"54844"},{"NORAD_CAT_ID":"54845","MEAN_MOTION":"15.64278845","RCS_SIZE":"LARGE","SITE":"AFETR","EPHEMERIS_TYPE":"0","REF_FRAME":"TEME","CENTER_NAME":"EARTH","TLE_LINE2":"2 54845  42.9959 256.7488 0001340 267.2827 290.9925 15.64278845  3254","INCLINATION":"42.9959","MEAN_MOTION_DDOT":"0.0000000000000","ARG_OF_PERICENTER":"267.2827","PERIOD":"92.055","MEAN_ELEMENT_THEORY":"SGP4","RA_OF_ASC_NODE":"256.7488","SEMIMAJOR_AXIS":"6753.451","APOAPSIS":"376.221","LAUNCH_DATE":"2022-12-28","FILE":"3750714","GP_ID":"223226595","COUNTRY_CODE":"US","ELEMENT_SET_NO":"999","MEAN_MOTION_DOT":"-0.01177219","TLE_LINE1":"1 54845U 22177AB  23017.00001157 -.01177219  00000-0 -13301-1 0  9991","BSTAR":"-0.01330100000000","OBJECT_TYPE":"PAYLOAD","DECAY_DATE":null,"TIME_SYSTEM":"UTC","REV_AT_EPOCH":"325","ECCENTRICITY":"0.00013400","CLASSIFICATION_TYPE":"U","MEAN_ANOMALY":"290.9925","EPOCH":"2023-01-17T00:00:00.999648","OBJECT_NAME":"STARLINK-5082","PERIAPSIS":"374.411","OBJECT_ID":"2022-177AB"},{"MEAN_MOTION":"15.64796693","NORAD_CAT_ID":"54846","SITE":"AFETR","RCS_SIZE":"LARGE","EPHEMERIS_TYPE":"0","CENTER_NAME":"EARTH","REF_FRAME":"TEME","MEAN_MOTION_DDOT":"0.0000000000000","TLE_LINE2":"2 54846  42.9944 257.7367 0001565 260.3553  79.8916 15.64796693  1309","ARG_OF_PERICENTER":"260.3553","INCLINATION":"42.9944","RA_OF_ASC_NODE":"257.7367","MEAN_ELEMENT_THEORY":"SGP4","PERIOD":"92.025","APOAPSIS":"374.882","SEMIMAJOR_AXIS":"6751.961","COUNTRY_CODE":"US","GP_ID":"223255816","FILE":"3750956","LAUNCH_DATE":"2022-12-28","TLE_LINE1":"1 54846U 22177AC  23016.83334491 -.01214346  00000-0 -13483-1 0  9996","MEAN_MOTION_DOT":"-0.01214346","ELEMENT_SET_NO":"999","BSTAR":"-0.01348300000000","TIME_SYSTEM":"UTC","OBJECT_TYPE":"PAYLOAD","DECAY_DATE":null,"ECCENTRICITY":"0.00015650","REV_AT_EPOCH":"130","CLASSIFICATION_TYPE":"U","OBJECT_NAME":"STARLINK-5360","MEAN_ANOMALY":"79.8916","EPOCH":"2023-01-16T20:00:01.000224","PERIAPSIS":"372.769","OBJECT_ID":"2022-177AC"},{"BSTAR":"-0.00540970000000","DECAY_DATE":null,"OBJECT_TYPE":"PAYLOAD","TIME_SYSTEM":"UTC","TLE_LINE1":"1 54847U 22177AD  23016.91667824 -.00790993  00000-0 -54097-2 0  9998","MEAN_MOTION_DOT":"-0.00790993","ELEMENT_SET_NO":"999","OBJECT_NAME":"STARLINK-5061","EPOCH":"2023-01-16T22:00:00.999936","MEAN_ANOMALY":"207.2949","PERIAPSIS":"340.676","OBJECT_ID":"2022-177AD","REV_AT_EPOCH":"130","ECCENTRICITY":"0.00016060","CLASSIFICATION_TYPE":"U","EPHEMERIS_TYPE":"0","CENTER_NAME":"EARTH","REF_FRAME":"TEME","NORAD_CAT_ID":"54847","MEAN_MOTION":"15.76012053","RCS_SIZE":"LARGE","SITE":"AFETR","APOAPSIS":"342.834","SEMIMAJOR_AXIS":"6719.890","LAUNCH_DATE":"2022-12-28","COUNTRY_CODE":"US","GP_ID":"223254127","FILE":"3750956","MEAN_MOTION_DDOT":"0.0000000000000","TLE_LINE2":"2 54847  42.9950 256.2716 0001606 271.7654 207.2949 15.76012053  1300","INCLINATION":"42.9950","ARG_OF_PERICENTER":"271.7654","PERIOD":"91.370","RA_OF_ASC_NODE":"256.2716","MEAN_ELEMENT_THEORY":"SGP4"},{"GP_ID":"223254369","FILE":"3750956","COUNTRY_CODE":"US","LAUNCH_DATE":"2022-12-28","SEMIMAJOR_AXIS":"6733.121","APOAPSIS":"356.133","MEAN_ELEMENT_THEORY":"SGP4","RA_OF_ASC_NODE":"257.6574","PERIOD":"91.640","MEAN_MOTION_DDOT":"0.0000000000000","TLE_LINE2":"2 54848  42.9992 257.6574 0001704 257.1205 115.9725 15.71368809  1308","INCLINATION":"42.9992","ARG_OF_PERICENTER":"257.1205","REF_FRAME":"TEME","CENTER_NAME":"EARTH","EPHEMERIS_TYPE":"0","SITE":"AFETR","RCS_SIZE":"LARGE","MEAN_MOTION":"15.71368809","NORAD_CAT_ID":"54848","OBJECT_ID":"2022-177AE","PERIAPSIS":"353.839","MEAN_ANOMALY":"115.9725","EPOCH":"2023-01-16T20:00:01.000224","OBJECT_NAME":"STARLINK-5432","CLASSIFICATION_TYPE":"U","ECCENTRICITY":"0.00017040","REV_AT_EPOCH":"130","TIME_SYSTEM":"UTC","OBJECT_TYPE":"PAYLOAD","DECAY_DATE":null,"BSTAR":"-0.00022374000000","ELEMENT_SET_NO":"999","MEAN_MOTION_DOT":"-0.00029704","TLE_LINE1":"1 54848U 22177AE  23016.83334491 -.00029704  00000-0 -22374-3 0  9990"},{"CLASSIFICATION_TYPE":"U","REV_AT_EPOCH":"130","ECCENTRICITY":"0.00014520","OBJECT_ID":"2022-177AF","PERIAPSIS":"373.299","MEAN_ANOMALY":"179.9474","EPOCH":"2023-01-16T22:00:00.999936","OBJECT_NAME":"STARLINK-5434","ELEMENT_SET_NO":"999","TLE_LINE1":"1 54849U 22177AF  23016.91667824 -.01202471  00000-0 -13422-1 0  9996","MEAN_MOTION_DOT":"-0.01202471","TIME_SYSTEM":"UTC","DECAY_DATE":null,"OBJECT_TYPE":"PAYLOAD","BSTAR":"-0.01342200000000","MEAN_ELEMENT_THEORY":"SGP4","RA_OF_ASC_NODE":"257.2367","PERIOD":"92.034","TLE_LINE2":"2 54849  42.9957 257.2367 0001452 272.6802 179.9474 15.64638973  1306","ARG_OF_PERICENTER":"272.6802","MEAN_MOTION_DDOT":"0.0000000000000","INCLINATION":"42.9957","FILE":"3750956","GP_ID":"223255575","COUNTRY_CODE":"US","LAUNCH_DATE":"2022-12-28","SEMIMAJOR_AXIS":"6752.414","APOAPSIS":"375.260","SITE":"AFETR","RCS_SIZE":"LARGE","MEAN_MOTION":"15.64638973","NORAD_CAT_ID":"54849","REF_FRAME":"TEME","CENTER_NAME":"EARTH","EPHEMERIS_TYPE":"0"}];
